NORAD_CAT_ID,OBJECT_NAME,OBJECT_TYPE,EPOCH,MEAN_MOTION,ECCENTRICITY,INCLINATION,RA_OF_ASC_NODE,ARG_OF_PERICENTER,MEAN_ANOMALY,BSTAR,MEAN_MOTION_DOT,MEAN_MOTION_DDOT,TLE_LINE0,TLE_LINE1,TLE_LINE2,SEMIMAJOR_AXIS,PERIOD,APOGEE,PERIGEE,DECAYED
51793.0,STARLINK-3633,PAYLOAD,2023-10-26 08:31:38,15.08847477,0.000166,53.2163,273.7576,92.6501,267.4681,0.00020313,2.947e-05,0.0,0 STARLINK-3633,1 51793U 22017AB  23299.35531120  .00002947  00000-0  20313-3 0  9996,2 51793  53.2163 273.7576 0001660  92.6501 267.4681 15.08847477 93333,6917.858,95.437,540.871,538.574,0.0
51793.0,STARLINK-3633,PAYLOAD,2023-10-26 22:50:07,15.08842973,0.0001682,53.2163,271.0812,92.8754,267.243,0.00013323,1.833e-05,0.0,0 STARLINK-3633,1 51793U 22017AB  23299.95147253  .00001833  00000-0  13323-3 0  9998,2 51793  53.2163 271.0812 0001682  92.8754 267.2430 15.08842973 93429,6917.871,95.437,540.9,538.573,0.0
51793.0,STARLINK-3633,PAYLOAD,2023-10-27 05:11:39,15.08856235,0.0001514,53.2156,269.8921,90.9338,269.1828,0.00038913,5.913e-05,0.0,0 STARLINK-3633,1 51793U 22017AB  23300.21642696  .00005913  00000-0  38913-3 0  9996,2 51793  53.2156 269.8921 0001514  90.9338 269.1828 15.08856235 93460,6917.831,95.437,540.743,538.648,0.0
51793.0,STARLINK-3633,PAYLOAD,2023-10-27 22:40:54,15.08837463,0.0001395,53.216,266.6208,87.026,273.0892,-7.2245e-06,-4.03e-06,0.0,0 STARLINK-3633,1 51793U 22017AB  23300.94507380 -.00000403  00000-0 -72245-5 0  9995,2 51793  53.2160 266.6208 0001395  87.0260 273.0892 15.08837463 93575,6917.888,95.438,540.718,538.788,0.0
51793.0,STARLINK-3633,PAYLOAD,2023-10-28 06:37:50,15.08834482,0.0001473,53.2159,265.1342,86.8337,273.2824,-5.0088e-05,-1.085e-05,0.0,0 STARLINK-3633,1 51793U 22017AB  23301.27627620 -.00001085  00000-0 -50088-4 0  9999,2 51793  53.2159 265.1342 0001473  86.8337 273.2824 15.08834482 93626,6917.897,95.438,540.781,538.743,0.0
51793.0,STARLINK-3633,PAYLOAD,2023-10-28 14:34:46,15.08835136,0.0001476,53.2161,263.6474,87.0895,273.0266,-8.6817e-06,-4.26e-06,0.0,0 STARLINK-3633,1 51793U 22017AB  23301.60747855 -.00000426  00000-0 -86817-5 0  9997,2 51793  53.2161 263.6474 0001476  87.0895 273.0266 15.08835136 93673,6917.895,95.438,540.781,538.739,0.0
51793.0,STARLINK-3633,PAYLOAD,2023-10-29 04:53:13,15.0885248,0.0001421,53.2152,260.9714,84.6418,275.4737,0.00036021,5.451e-05,0.0,0 STARLINK-3633,1 51793U 22017AB  23302.20363226  .00005451  00000-0  36021-3 0  9991,2 51793  53.2152 260.9714 0001421  84.6418 275.4737 15.08852480 93764,6917.842,95.437,540.69,538.724,0.0
51793.0,STARLINK-3633,PAYLOAD,2023-10-29 06:28:36,15.08856635,0.0001431,53.2153,260.674,85.3223,274.7933,0.00045803,7.012e-05,0.0,0 STARLINK-3633,1 51793U 22017AB  23302.26987107  .00007012  00000-0  45803-3 0  9990,2 51793  53.2153 260.6740 0001431  85.3223 274.7933 15.08856635 93771,6917.83,95.437,540.684,538.705,0.0
51793.0,STARLINK-3633,PAYLOAD,2023-10-30 03:08:38,15.08846943,0.000143,53.2154,256.8086,94.7702,265.3453,0.00030173,4.518e-05,0.0,0 STARLINK-3633,1 51793U 22017AB  23303.13099571  .00004518  00000-0  30173-3 0  9998,2 51793  53.2154 256.8086 0001430  94.7702 265.3453 15.08846943 93906,6917.859,95.437,540.713,538.735,0.0
51793.0,STARLINK-3633,PAYLOAD,2023-10-30 20:37:52,15.08837364,0.0001665,53.2156,253.5381,86.4064,273.7118,6.0454e-05,6.74e-06,0.0,0 STARLINK-3633,1 51793U 22017AB  23303.85964042  .00000674  00000-0  60454-4 0  9996,2 51793  53.2156 253.5381 0001665  86.4064 273.7118 15.08837364 94010,6917.888,95.438,540.905,538.602,0.0
51793.0,STARLINK-3633,PAYLOAD,2023-10-31 14:07:07,15.08841883,0.0001371,53.2148,250.2658,100.4742,259.6405,0.00019194,2.768e-05,0.0,0 STARLINK-3633,1 51793U 22017AB  23304.58828130  .00002768  00000-0  19194-3 0  9994,2 51793  53.2148 250.2658 0001371 100.4742 259.6405 15.08841883 94121,6917.875,95.437,540.688,538.791,0.0
51793.0,STARLINK-3633,PAYLOAD,2023-11-01 02:50:12,15.08844045,0.0001493,53.217,247.8856,90.9963,269.12,0.00025804,3.822e-05,0.0,0 STARLINK-3633,1 51793U 22017AB  23305.11820122  .00003822  00000-0  25804-3 0  9994,2 51793  53.2170 247.8856 0001493  90.9963 269.1200 15.08844045 94202,6917.868,95.437,540.766,538.7,0.0
51793.0,STARLINK-3633,PAYLOAD,2023-11-01 06:00:58,15.08850394,0.0001607,53.217,247.2903,95.8826,264.2349,0.00035023,5.292e-05,0.0,0 STARLINK-3633,1 51793U 22017AB  23305.25067880  .00005292  00000-0  35023-3 0  9990,2 51793  53.2170 247.2903 0001607  95.8826 264.2349 15.08850394 94224,6917.849,95.437,540.825,538.602,0.0
51793.0,STARLINK-3633,PAYLOAD,2023-11-01 20:19:27,15.08846159,0.0001897,53.2152,244.617,90.6084,269.5125,0.00025152,3.718e-05,0.0,0 STARLINK-3633,1 51793U 22017AB  23305.84684118  .00003718  00000-0  25152-3 0  9997,2 51793  53.2152 244.6170 0001897  90.6084 269.5125 15.08846159 94315,6917.862,95.437,541.039,538.414,0.0
51793.0,STARLINK-3633,PAYLOAD,2023-11-02 02:40:59,15.08853329,0.000151,53.2147,243.4269,96.1076,264.0089,0.00034593,5.224e-05,0.0,0 STARLINK-3633,1 51793U 22017AB  23306.11179776  .00005224  00000-0  34593-3 0  9990,2 51793  53.2147 243.4269 0001510  96.1076 264.0089 15.08853329 94359,6917.84,95.437,540.749,538.66,0.0
51793.0,STARLINK-3633,PAYLOAD,2023-11-02 20:10:13,15.08843398,0.0001474,53.2148,240.1529,96.0087,264.1073,0.00010703,1.416e-05,0.0,0 STARLINK-3633,1 51793U 22017AB  23306.84043921  .00001416  00000-0  10703-3 0  9998,2 51793  53.2148 240.1529 0001474  96.0087 264.1073 15.08843398 94464,6917.87,95.437,540.755,538.715,0.0
51793.0,STARLINK-3633,PAYLOAD,2023-11-03 12:04:05,15.08842382,0.000135,53.2149,237.1798,81.0828,279.0316,7.9536e-05,9.78e-06,0.0,0 STARLINK-3633,1 51793U 22017AB  23307.50283875  .00000978  00000-0  79536-4 0  9998,2 51793  53.2149 237.1798 0001350  81.0828 279.0316 15.08842382 94567,6917.873,95.437,540.672,538.804,0.0
51793.0,STARLINK-3633,PAYLOAD,2023-11-03 20:01:01,15.08835531,0.0001356,53.2153,235.694,84.7844,275.3303,-7.3885e-05,-1.463e-05,0.0,0 STARLINK-3633,1 51793U 22017AB  23307.83404156 -.00001463  00000-0 -73885-4 0  9994,2 51793  53.2153 235.6940 0001356  84.7844 275.3303 15.08835531 94617,6917.894,95.438,540.697,538.821,0.0
51793.0,STARLINK-3633,PAYLOAD,2023-11-04 02:22:33,15.08849897,0.0001407,53.2163,234.508,98.7146,261.4005,0.00024024,3.539e-05,0.0,0 STARLINK-3633,1 51793U 22017AB  23308.09899618  .00003539  00000-0  24024-3 0  9998,2 51793  53.2163 234.5080 0001407  98.7146 261.4005 15.08849897 94657,6917.85,95.437,540.688,538.742,0.0
51793.0,STARLINK-3633,PAYLOAD,2023-11-04 11:54:52,15.08848477,0.0001097,53.2155,232.7193,77.3961,282.7154,0.00034412,5.194e-05,0.0,0 STARLINK-3633,1 51793U 22017AB  23308.49643608  .00005194  00000-0  34412-3 0  9999,2 51793  53.2155 232.7193 0001097  77.3961 282.7154 15.08848477 94717,6917.854,95.437,540.478,538.961,0.0
51793.0,STARLINK-3633,PAYLOAD,2023-11-05 03:48:43,15.08853409,0.0001439,53.215,229.7488,91.468,268.6477,0.00044675,6.832e-05,0.0,0 STARLINK-3633,1 51793U 22017AB  23309.15883858  .00006832  00000-0  44675-3 0  9998,2 51793  53.2150 229.7488 0001439  91.4680 268.6477 15.08853409 94813,6917.839,95.437,540.7,538.709,0.0
51793.0,STARLINK-3633,PAYLOAD,2023-11-05 11:45:39,15.08851329,0.0001501,53.2163,228.2626,86.8454,273.271,0.00036558,5.537e-05,0.0,0 STARLINK-3633,1 51793U 22017AB  23309.49003814  .00005537  00000-0  36558-3 0  9993,2 51793  53.2163 228.2626 0001501  86.8454 273.2710 15.08851329 94868,6917.846,95.437,540.749,538.672,0.0
51793.0,STARLINK-3633,PAYLOAD,2023-11-05 22:53:20,15.08873217,0.0001433,53.216,226.1806,83.1194,276.9961,0.00076268,0.00011882,0.0,0 STARLINK-3633,1 51793U 22017AB  23309.95370776  .00011882  00000-0  76268-3 0  9990,2 51793  53.2160 226.1806 0001433  83.1194 276.9961 15.08873217 94933,6917.779,95.435,540.635,538.653,0.0
51793.0,STARLINK-3633,PAYLOAD,2023-11-06 03:39:28,15.08907061,0.0001392,53.215,225.287,87.3507,272.7644,0.0017442,0.00027631,0.0,0 STARLINK-3633,1 51793U 22017AB  23310.15241568  .00027631  00000-0  17442-2 0  9997,2 51793  53.2150 225.2870 0001392  87.3507 272.7644 15.08907061 94961,6917.675,95.433,540.503,538.577,0.0
51793.0,STARLINK-3633,PAYLOAD,2023-11-06 11:36:24,15.08875767,0.0002089,53.2153,223.7987,86.6388,273.4843,0.000155,2.182e-05,0.0,0 STARLINK-3633,1 51793U 22017AB  23310.48361608  .00002182  00000-0  15500-3 0  9999,2 51793  53.2153 223.7987 0002089  86.6388 273.4843 15.08875767 95012,6917.771,95.435,541.081,538.191,0.0
51793.0,STARLINK-3633,PAYLOAD,2023-11-07 01:54:53,15.08806341,0.0001505,53.2158,221.1257,73.5529,286.5629,-0.0013627,-0.0002189,0.0,0 STARLINK-3633,1 51793U 22017AB  23311.07979063 -.00021890  00000-0 -13627-2 0  9991,2 51793  53.2158 221.1257 0001505  73.5529 286.5629 15.08806341 95102,6917.983,95.44,540.889,538.807,0.0
51793.0,STARLINK-3633,PAYLOAD,2023-11-07 11:27:13,15.08794066,0.0001051,53.2152,219.3399,106.2888,253.822,-0.00039139,-6.503e-05,0.0,0 STARLINK-3633,1 51793U 22017AB  23311.47723886 -.00006503  00000-0 -39139-3 0  9996,2 51793  53.2152 219.3399 0001051 106.2888 253.8220 15.08794066 95160,6918.021,95.44,540.613,539.159,0.0
51793.0,STARLINK-3633,PAYLOAD,2023-11-08 03:21:06,15.08824838,0.0001207,53.2157,216.367,104.7951,255.3175,0.0013576,0.00021375,0.0,0 STARLINK-3633,1 51793U 22017AB  23312.13965288  .00021375  00000-0  13576-2 0  9992,2 51793  53.2157 216.3670 0001207 104.7951 255.3175 15.08824838 95269,6917.927,95.439,540.627,538.957,0.0
51793.0,STARLINK-3633,PAYLOAD,2023-11-08 22:25:45,15.08832701,0.0001049,53.2165,212.7996,74.4548,285.656,0.0012696,0.00019971,0.0,0 STARLINK-3633,1 51793U 22017AB  23312.93455277  .00019971  00000-0  12696-2 0  9993,2 51793  53.2165 212.7996 0001049  74.4548 285.6560 15.08832701 95383,6917.903,95.438,540.493,539.042,0.0
51793.0,STARLINK-3633,PAYLOAD,2023-11-09 00:01:08,15.08837536,0.0001196,53.2159,212.5072,93.5316,266.5813,0.0013074,0.00020579,0.0,0 STARLINK-3633,1 51793U 22017AB  23313.00079225  .00020579  00000-0  13074-2 0  9994,2 51793  53.2159 212.5072 0001196  93.5316 266.5813 15.08837536 95398,6917.888,95.438,540.58,538.926,0.0
